{
  "type": "FeatureCollection",
  "features": [
    {
      "type": "Feature",
      "properties": {
        "norad_id": 34366,
        "name": "IRIDIUM 33 DEB",
        "group": "iridium-33-debris",
        "lat": -43.96697068427212,
        "lon": -133.4176475032038,
        "alt_km": 729.1215264070961,
        "timestamp": "2025-12-27T02:10:16.574120+00:00",
        "meta_object_name": "IRIDIUM 33 DEB",
        "meta_object_id": "1997-051FJ",
        "meta_epoch": "2025-12-26T03:56:31.227648",
        "meta_mean_motion": 14.54157583,
        "meta_eccentricity": 0.00230515,
        "meta_inclination": 86.3679,
        "meta_ra_of_asc_node": 43.4727,
        "meta_arg_of_pericenter": 98.1181,
        "meta_mean_anomaly": 320.0434,
        "meta_ephemeris_type": 0,
        "meta_classification_type": "U",
        "meta_norad_cat_id": 34366,
        "meta_element_set_no": 999,
        "meta_rev_at_epoch": 88377,
        "meta_bstar": 0.00085396715,
        "meta_mean_motion_dot": 3.644e-05,
        "meta_mean_motion_ddot": 0,
        "tle_line1": "1 34366U 97051FJ  25360.16425032  .00003644  00000+0  85397-3 0  9994",
        "tle_line2": "2 34366  86.3679  43.4727 0023051  98.1181 320.0434 14.54157583883771"
      },
      "geometry": {
        "type": "Point",
        "coordinates": [
          -133.4176475032038,
          -43.96697068427212
        ]
      }
    },
    {
      "type": "Feature",
      "properties": {
        "norad_id": 34375,
        "name": "IRIDIUM 33 DEB",
        "group": "iridium-33-debris",
        "lat": 75.6495727759281,
        "lon": -168.96878868339772,
        "alt_km": 750.5728072391057,
        "timestamp": "2025-12-27T02:10:16.574131+00:00",
        "meta_object_name": "IRIDIUM 33 DEB",
        "meta_object_id": "1997-051FT",
        "meta_epoch": "2025-12-26T12:31:30.469152",
        "meta_mean_motion": 14.18016957,
        "meta_eccentricity": 0.0103684,
        "meta_inclination": 86.4324,
        "meta_ra_of_asc_node": 177.1462,
        "meta_arg_of_pericenter": 83.6449,
        "meta_mean_anomaly": 331.8283,
        "meta_ephemeris_type": 0,
        "meta_classification_type": "U",
        "meta_norad_cat_id": 34375,
        "meta_element_set_no": 999,
        "meta_rev_at_epoch": 86907,
        "meta_bstar": 0.00041617,
        "meta_mean_motion_dot": 9.18e-06,
        "meta_mean_motion_ddot": 0,
        "tle_line1": "1 34375U 97051FT  25360.52188043  .00000918  00000+0  41617-3 0  9990",
        "tle_line2": "2 34375  86.4324 177.1462 0103684  83.6449 331.8283 14.18016957869075"
      },
      "geometry": {
        "type": "Point",
        "coordinates": [
          -168.96878868339772,
          75.6495727759281
        ]
      }
    },
    {
      "type": "Feature",
      "properties": {
        "norad_id": 34376,
        "name": "IRIDIUM 33 DEB",
        "group": "iridium-33-debris",
        "lat": -52.670996768535254,
        "lon": -175.04359700521277,
        "alt_km": 699.1521755574631,
        "timestamp": "2025-12-27T02:10:16.574141+00:00",
        "meta_object_name": "IRIDIUM 33 DEB",
        "meta_object_id": "1997-051FU",
        "meta_epoch": "2025-12-26T18:32:45.117888",
        "meta_mean_motion": 14.62763558,
        "meta_eccentricity": 0.0028652,
        "meta_inclination": 86.2986,
        "meta_ra_of_asc_node": 0.2297,
        "meta_arg_of_pericenter": 120.9152,
        "meta_mean_anomaly": 239.4882,
        "meta_ephemeris_type": 0,
        "meta_classification_type": "U",
        "meta_norad_cat_id": 34376,
        "meta_element_set_no": 999,
        "meta_rev_at_epoch": 88212,
        "meta_bstar": 0.0016299,
        "meta_mean_motion_dot": 8.382e-05,
        "meta_mean_motion_ddot": 0,
        "tle_line1": "1 34376U 97051FU  25360.77274442  .00008382  00000+0  16299-2 0  9997",
        "tle_line2": "2 34376  86.2986   0.2297 0028652 120.9152 239.4882 14.62763558882121"
      },
      "geometry": {
        "type": "Point",
        "coordinates": [
          -175.04359700521277,
          -52.670996768535254
        ]
      }
    },
    {
      "type": "Feature",
      "properties": {
        "norad_id": 34486,
        "name": "IRIDIUM 33 DEB",
        "group": "iridium-33-debris",
        "lat": 14.258948046761418,
        "lon": 6.315275499586842,
        "alt_km": 573.5834757663652,
        "timestamp": "2025-12-27T02:10:16.574152+00:00",
        "meta_object_name": "IRIDIUM 33 DEB",
        "meta_object_id": "1997-051GB",
        "meta_epoch": "2025-12-26T00:39:56.499264",
        "meta_mean_motion": 14.96400313,
        "meta_eccentricity": 0.00139183,
        "meta_inclination": 86.3935,
        "meta_ra_of_asc_node": 5.8877,
        "meta_arg_of_pericenter": 74.4824,
        "meta_mean_anomaly": 338.8012,
        "meta_ephemeris_type": 0,
        "meta_classification_type": "U",
        "meta_norad_cat_id": 34486,
        "meta_element_set_no": 999,
        "meta_rev_at_epoch": 89185,
        "meta_bstar": 0.0021412617,
        "meta_mean_motion_dot": 0.00024383,
        "meta_mean_motion_ddot": 0,
        "tle_line1": "1 34486U 97051GB  25360.02773726  .00024383  00000+0  21413-2 0  9999",
        "tle_line2": "2 34486  86.3935   5.8877 0013918  74.4824 338.8012 14.96400313891854"
      },
      "geometry": {
        "type": "Point",
        "coordinates": [
          6.315275499586842,
          14.258948046761418
        ]
      }
    },
    {
      "type": "Feature",
      "properties": {
        "norad_id": 34487,
        "name": "IRIDIUM 33 DEB",
        "group": "iridium-33-debris",
        "lat": -2.0893953006612973,
        "lon": -173.66823632038702,
        "alt_km": 754.5433408778954,
        "timestamp": "2025-12-27T02:10:16.574162+00:00",
        "meta_object_name": "IRIDIUM 33 DEB",
        "meta_object_id": "1997-051GC",
        "meta_epoch": "2025-12-26T00:37:21.163296",
        "meta_mean_motion": 14.43232747,
        "meta_eccentricity": 0.00332617,
        "meta_inclination": 86.3429,
        "meta_ra_of_asc_node": 6.6563,
        "meta_arg_of_pericenter": 87.1121,
        "meta_mean_anomaly": 327.0907,
        "meta_ephemeris_type": 0,
        "meta_classification_type": "U",
        "meta_norad_cat_id": 34487,
        "meta_element_set_no": 999,
        "meta_rev_at_epoch": 88440,
        "meta_bstar": 0.00018559814,
        "meta_mean_motion_dot": 6.49e-06,
        "meta_mean_motion_ddot": 0,
        "tle_line1": "1 34487U 97051GC  25360.02593939  .00000649  00000+0  18560-3 0  9995",
        "tle_line2": "2 34487  86.3429   6.6563 0033261  87.1121 327.0907 14.43232747884400"
      },
      "geometry": {
        "type": "Point",
        "coordinates": [
          -173.66823632038702,
          -2.0893953006612973
        ]
      }
    },
    {
      "type": "Feature",
      "properties": {
        "norad_id": 34488,
        "name": "IRIDIUM 33 DEB",
        "group": "iridium-33-debris",
        "lat": 7.794926631225646,
        "lon": -60.80876176770716,
        "alt_km": 462.80957614914496,
        "timestamp": "2025-12-27T02:10:16.574173+00:00",
        "meta_object_name": "IRIDIUM 33 DEB",
        "meta_object_id": "1997-051GD",
        "meta_epoch": "2025-12-25T20:22:16.973184",
        "meta_mean_motion": 15.32823177,
        "meta_eccentricity": 0.00085439,
        "meta_inclination": 86.325,
        "meta_ra_of_asc_node": 299.3053,
        "meta_arg_of_pericenter": 30.257,
        "meta_mean_anomaly": 329.9171,
        "meta_ephemeris_type": 0,
        "meta_classification_type": "U",
        "meta_norad_cat_id": 34488,
        "meta_element_set_no": 999,
        "meta_rev_at_epoch": 89440,
        "meta_bstar": 0.0046585997,
        "meta_mean_motion_dot": 0.00150449,
        "meta_mean_motion_ddot": 0,
        "tle_line1": "1 34488U 97051GD  25359.84880756  .00150449  00000+0  46586-2 0  9992",
        "tle_line2": "2 34488  86.3250 299.3053 0008543  30.2570 329.9171 15.32823177894407"
      },
      "geometry": {
        "type": "Point",
        "coordinates": [
          -60.80876176770716,
          7.794926631225646
        ]
      }
    },
    {
      "type": "Feature",
      "properties": {
        "norad_id": 34492,
        "name": "IRIDIUM 33 DEB",
        "group": "iridium-33-debris",
        "lat": 85.33389090422884,
        "lon": 99.74202757237973,
        "alt_km": 815.2924355453288,
        "timestamp": "2025-12-27T02:10:16.574183+00:00",
        "meta_object_name": "IRIDIUM 33 DEB",
        "meta_object_id": "1997-051GH",
        "meta_epoch": "2025-12-26T16:26:49.984800",
        "meta_mean_motion": 14.25962973,
        "meta_eccentricity": 0.0188844,
        "meta_inclination": 86.4728,
        "meta_ra_of_asc_node": 328.991,
        "meta_arg_of_pericenter": 192.8428,
        "meta_mean_anomaly": 343.7311,
        "meta_ephemeris_type": 0,
        "meta_classification_type": "U",
        "meta_norad_cat_id": 34492,
        "meta_element_set_no": 999,
        "meta_rev_at_epoch": 85257,
        "meta_bstar": 0.0027705,
        "meta_mean_motion_dot": 7.99e-05,
        "meta_mean_motion_ddot": 0,
        "tle_line1": "1 34492U 97051GH  25360.68530075  .00007990  00000+0  27705-2 0  9991",
        "tle_line2": "2 34492  86.4728 328.9910 0188844 192.8428 343.7311 14.25962973852575"
      },
      "geometry": {
        "type": "Point",
        "coordinates": [
          99.74202757237973,
          85.33389090422884
        ]
      }
    }
  ]
}